NORAD_CAT_ID,OBJECT_NAME,OBJECT_TYPE,EPOCH,MEAN_MOTION,ECCENTRICITY,INCLINATION,RA_OF_ASC_NODE,ARG_OF_PERICENTER,MEAN_ANOMALY,BSTAR,MEAN_MOTION_DOT,MEAN_MOTION_DDOT,TLE_LINE0,TLE_LINE1,TLE_LINE2,SEMIMAJOR_AXIS,PERIOD,APOGEE,PERIGEE,DECAYED
52299.0,STARLINK-3759,PAYLOAD,2023-10-25 12:24:45,15.08844126,0.0001396,53.218,27.5233,87.3143,272.8009,0.00010845,1.439e-05,0.0,0 STARLINK-3759,1 52299U 22041AQ  23298.51719133  .00001439  00000-0  10845-3 0  9998,2 52299  53.2180  27.5233 0001396  87.3143 272.8009 15.08844126 84969,6917.868,95.437,540.699,538.767,0.0
52299.0,STARLINK-3759,PAYLOAD,2023-10-26 12:15:32,15.08847581,0.000152,53.2177,23.0631,87.4575,272.6591,0.00015118,2.119e-05,0.0,0 STARLINK-3759,1 52299U 22041AQ  23299.51078848  .00002119  00000-0  15118-3 0  9994,2 52299  53.2177  23.0631 0001520  87.4575 272.6591 15.08847581 83890,6917.857,95.437,540.774,538.671,0.0
52299.0,STARLINK-3759,PAYLOAD,2023-10-27 12:06:18,15.08854459,0.0001575,53.2182,18.6042,78.9329,281.1841,0.00022299,3.264e-05,0.0,0 STARLINK-3759,1 52299U 22041AQ  23300.50438205  .00003264  00000-0  22299-3 0  9993,2 52299  53.2182  18.6042 0001575  78.9329 281.1841 15.08854459 85262,6917.836,95.437,540.791,538.612,0.0
52299.0,STARLINK-3759,PAYLOAD,2023-10-27 15:17:04,15.08860156,0.0001463,53.2175,18.0063,85.7754,274.3405,0.00025805,3.824e-05,0.0,0 STARLINK-3759,1 52299U 22041AQ  23300.63685725  .00003824  00000-0  25805-3 0  9996,2 52299  53.2175  18.0063 0001463  85.7754 274.3405 15.08860156 84063,6917.819,95.436,540.696,538.672,0.0
52299.0,STARLINK-3759,PAYLOAD,2023-10-28 11:57:06,15.08835456,0.0001463,53.2169,14.1422,88.8,271.3159,-5.5296e-05,-1.168e-05,0.0,0 STARLINK-3759,1 52299U 22041AQ  23301.49799027 -.00001168  00000-0 -55296-4 0  9991,2 52299  53.2169  14.1422 0001463  88.8000 271.3159 15.08835456 85418,6917.894,95.438,540.771,538.747,0.0
52299.0,STARLINK-3759,PAYLOAD,2023-10-28 21:29:25,15.08841924,0.0001438,53.2168,12.3579,84.4383,275.6774,0.000111,1.479e-05,0.0,0 STARLINK-3759,1 52299U 22041AQ  23301.89542941  .00001479  00000-0  11100-3 0  9994,2 52299  53.2168  12.3579 0001438  84.4383 275.6774 15.08841924 84256,6917.875,95.437,540.734,538.745,0.0
52299.0,STARLINK-3759,PAYLOAD,2023-10-29 11:47:53,15.08863219,0.0001411,53.2171,9.6823,88.9942,271.1212,0.0010963,0.00017214,0.0,0 STARLINK-3759,1 52299U 22041AQ  23302.49158685  .00017214  00000-0  10963-2 0  9998,2 52299  53.2171   9.6823 0001411  88.9942 271.1212 15.08863219 85566,6917.809,95.436,540.651,538.698,0.0
52299.0,STARLINK-3759,PAYLOAD,2023-10-29 13:23:16,15.08867763,0.0001419,53.2171,9.3848,88.4655,271.6499,0.0011993,0.00018865,0.0,0 STARLINK-3759,1 52299U 22041AQ  23302.55782547  .00018865  00000-0  11993-2 0  9992,2 52299  53.2171   9.3848 0001419  88.4655 271.6499 15.08867763 84350,6917.796,95.436,540.642,538.679,0.0
52299.0,STARLINK-3759,PAYLOAD,2023-10-29 21:20:11,15.08848249,0.0001493,53.218,7.8967,94.6471,265.4691,0.00032025,4.814e-05,0.0,0 STARLINK-3759,1 52299U 22041AQ  23302.88902771  .00004814  00000-0  32025-3 0  9990,2 52299  53.2180   7.8967 0001493  94.6471 265.4691 15.08848249 84401,6917.855,95.437,540.753,538.687,0.0
52299.0,STARLINK-3759,PAYLOAD,2023-10-30 05:17:07,15.08834664,0.0001448,53.2166,6.4113,98.3926,261.7231,-0.00011499,-2.117e-05,0.0,0 STARLINK-3759,1 52299U 22041AQ  23303.22023115 -.00002117  00000-0 -11499-3 0  9993,2 52299  53.2166   6.4113 0001448  98.3926 261.7231 15.08834664 85674,6917.897,95.438,540.763,538.76,0.0
52299.0,STARLINK-3759,PAYLOAD,2023-10-30 11:38:40,15.08837934,0.0001483,53.2168,5.2219,101.4525,258.6634,0.00025974,3.848e-05,0.0,0 STARLINK-3759,1 52299U 22041AQ  23303.48519225  .00003848  00000-0  25974-3 0  9996,2 52299  53.2168   5.2219 0001483 101.4525 258.6634 15.08837934 84494,6917.887,95.438,540.778,538.726,0.0
52299.0,STARLINK-3759,PAYLOAD,2023-10-31 11:29:28,15.08832493,0.0001541,53.2173,0.762,102.5414,257.5751,0.00041058,6.251e-05,0.0,0 STARLINK-3759,1 52299U 22041AQ  23304.47880319  .00006251  00000-0  41058-3 0  9993,2 52299  53.2173   0.7620 0001541 102.5414 257.5751 15.08832493 85865,6917.903,95.438,540.834,538.702,0.0
52299.0,STARLINK-3759,PAYLOAD,2023-10-31 21:01:47,15.08832143,0.0001459,53.2169,358.9776,89.1468,270.9691,0.00030824,4.62e-05,0.0,0 STARLINK-3759,1 52299U 22041AQ  23304.87624641  .00004620  00000-0  30824-3 0  9998,2 52299  53.2169 358.9776 0001459  89.1468 270.9691 15.08832143 84703,6917.904,95.438,540.779,538.76,0.0
52299.0,STARLINK-3759,PAYLOAD,2023-11-01 11:20:15,15.0884188,0.0001569,53.2173,356.3024,85.627,274.4901,0.00044322,6.773e-05,0.0,0 STARLINK-3759,1 52299U 22041AQ  23305.47240699  .00006773  00000-0  44322-3 0  9991,2 52299  53.2173 356.3024 0001569  85.6270 274.4901 15.08841880 84790,6917.875,95.437,540.825,538.654,0.0
52299.0,STARLINK-3759,PAYLOAD,2023-11-01 20:52:34,15.08845368,0.0001688,53.2176,354.5179,74.6445,285.4734,0.00034523,5.211e-05,0.0,0 STARLINK-3759,1 52299U 22041AQ  23305.86984595  .00005211  00000-0  34523-3 0  9992,2 52299  53.2176 354.5179 0001688  74.6445 285.4734 15.08845368 86072,6917.864,95.437,540.897,538.561,0.0
52299.0,STARLINK-3759,PAYLOAD,2023-11-02 09:35:39,15.08852956,0.0001494,53.2163,352.1372,84.3611,275.7552,0.00037132,5.629e-05,0.0,0 STARLINK-3759,1 52299U 22041AQ  23306.39976076  .00005629  00000-0  37132-3 0  9998,2 52299  53.2163 352.1372 0001494  84.3611 275.7552 15.08852956 84939,6917.841,95.437,540.739,538.672,0.0
52299.0,STARLINK-3759,PAYLOAD,2023-11-02 20:43:21,15.08851709,0.0001457,53.2161,350.0557,83.1986,276.9172,0.00025934,3.843e-05,0.0,0 STARLINK-3759,1 52299U 22041AQ  23306.86343856  .00003843  00000-0  25934-3 0  9997,2 52299  53.2161 350.0557 0001457  83.1986 276.9172 15.08851709 85005,6917.845,95.437,540.718,538.702,0.0
52299.0,STARLINK-3759,PAYLOAD,2023-11-03 03:04:53,15.08846887,0.000179,53.2169,348.867,88.7982,271.3216,0.00010766,1.426e-05,0.0,0 STARLINK-3759,1 52299U 22041AQ  23307.12840057  .00001426  00000-0  10766-3 0  9994,2 52299  53.2169 348.8670 0001790  88.7982 271.3216 15.08846887 86269,6917.859,95.437,540.963,538.486,0.0
52299.0,STARLINK-3759,PAYLOAD,2023-11-03 09:26:26,15.08847679,0.0001722,53.2177,347.6768,88.8829,271.2361,3.6519e-05,2.93e-06,0.0,0 STARLINK-3759,1 52299U 22041AQ  23307.39335857  .00000293  00000-0  36519-4 0  9996,2 52299  53.2177 347.6768 0001722  88.8829 271.2361 15.08847679 85088,6917.857,95.437,540.913,538.531,0.0
52299.0,STARLINK-3759,PAYLOAD,2023-11-04 02:55:41,15.08836814,0.000174,53.2182,344.406,89.2632,270.8559,-1.6119e-05,-5.45e-06,0.0,0 STARLINK-3759,1 52299U 22041AQ  23308.12200368 -.00000545  00000-0 -16119-4 0  9992,2 52299  53.2182 344.4060 0001740  89.2632 270.8559 15.08836814 86412,6917.89,95.438,540.959,538.551,0.0
52299.0,STARLINK-3759,PAYLOAD,2023-11-04 09:17:13,15.08843728,0.0001469,53.218,343.2159,89.2342,270.8818,-1.3925e-05,-5.1e-06,0.0,0 STARLINK-3759,1 52299U 22041AQ  23308.38696173 -.00000510  00000-0 -13925-4 0  9997,2 52299  53.2180 343.2159 0001469  89.2342 270.8818 15.08843728 85231,6917.869,95.437,540.75,538.718,0.0
52299.0,STARLINK-3759,PAYLOAD,2023-11-05 09:07:59,15.08855546,0.0001453,53.217,338.7549,95.489,264.6268,0.00030511,4.573e-05,0.0,0 STARLINK-3759,1 52299U 22041AQ  23309.38055367  .00004573  00000-0  30511-3 0  9992,2 52299  53.2170 338.7549 0001453  95.4890 264.6268 15.08855546 86605,6917.833,95.437,540.703,538.693,0.0
52299.0,STARLINK-3759,PAYLOAD,2023-11-05 18:40:18,15.08847865,0.0001505,53.2178,336.9725,95.0098,265.1066,0.00014234,1.979e-05,0.0,0 STARLINK-3759,1 52299U 22041AQ  23309.77799614  .00001979  00000-0  14234-3 0  9996,2 52299  53.2178 336.9725 0001505  95.0098 265.1066 15.08847865 86666,6917.856,95.437,540.762,538.68,0.0
52299.0,STARLINK-3759,PAYLOAD,2023-11-06 02:37:14,15.08838836,0.0001455,53.2174,335.4852,80.7519,279.3638,4.1995e-05,3.8e-06,0.0,0 STARLINK-3759,1 52299U 22041AQ  23310.10920101  .00000380  00000-0  41995-4 0  9992,2 52299  53.2174 335.4852 0001455  80.7519 279.3638 15.08838836 86716,6917.884,95.438,540.755,538.742,0.0
52299.0,STARLINK-3759,PAYLOAD,2023-11-06 08:58:46,15.08857428,0.0001386,53.2169,334.295,82.7475,277.3674,0.00030392,4.555e-05,0.0,0 STARLINK-3759,1 52299U 22041AQ  23310.37415064  .00004555  00000-0  30392-3 0  9994,2 52299  53.2169 334.2950 0001386  82.7475 277.3674 15.08857428 86752,6917.827,95.436,540.651,538.733,0.0
52299.0,STARLINK-3759,PAYLOAD,2023-11-06 18:31:05,15.08846625,0.0001237,53.2173,332.5116,54.3257,305.785,9.2104e-05,1.179e-05,0.0,0 STARLINK-3759,1 52299U 22041AQ  23310.77159387  .00001179  00000-0  92104-4 0  9990,2 52299  53.2173 332.5116 0001237  54.3257 305.7850 15.08846625 86816,6917.86,95.437,540.581,538.869,0.0
52299.0,STARLINK-3759,PAYLOAD,2023-11-07 10:24:58,15.08831002,0.0001652,53.2163,329.5364,76.6355,283.4821,7.8985e-05,9.69e-06,0.0,0 STARLINK-3759,1 52299U 22041AQ  23311.43401583  .00000969  00000-0  78985-4 0  9999,2 52299  53.2163 329.5364 0001652  76.6355 283.4821 15.08831002 86917,6917.908,95.438,540.916,538.63,0.0
52299.0,STARLINK-3759,PAYLOAD,2023-11-08 10:15:45,15.08858553,0.0002115,53.2171,325.0742,64.8011,295.32,0.00072672,0.00011303,0.0,0 STARLINK-3759,1 52299U 22041AQ  23312.42761327  .00011303  00000-0  72672-3 0  9994,2 52299  53.2171 325.0742 0002115  64.8011 295.3200 15.08858553 87060,6917.824,95.436,541.152,538.226,0.0
52299.0,STARLINK-3759,PAYLOAD,2023-11-08 18:12:41,15.08847915,0.0001562,53.217,323.5878,83.1886,276.9284,0.0005685,8.773e-05,0.0,0 STARLINK-3759,1 52299U 22041AQ  23312.75881732  .00008773  00000-0  56850-3 0  9990,2 52299  53.2170 323.5878 0001562  83.1886 276.9284 15.08847915 87114,6917.856,95.437,540.802,538.641,0.0
52299.0,STARLINK-3759,PAYLOAD,2023-11-09 10:06:32,15.08853763,0.0001906,53.2167,320.6117,91.4148,268.7062,0.00039497,6.006e-05,0.0,0 STARLINK-3759,1 52299U 22041AQ  23313.42121211  .00006006  00000-0  39497-3 0  9999,2 52299  53.2167 320.6117 0001906  91.4148 268.7062 15.08853763 85994,6917.838,95.437,541.022,538.385,0.0
